[{"OBJECT_NAME":"BEIDOU-3 M27 (C49)","OBJECT_ID":"2024-168C","EPOCH":"2026-03-27T15:29:11.582880","MEAN_MOTION":1.86230021,"ECCENTRICITY":0.0002847,"INCLINATION":54.5409,"RA_OF_ASC_NODE":305.0587,"ARG_OF_PERICENTER":30.2437,"MEAN_ANOMALY":333.176,"EPHEMERIS_TYPE":0,"CLASSIFICATION_TYPE":"U","NORAD_CAT_ID":61187,"ELEMENT_SET_NO":999,"REV_AT_EPOCH":774,"BSTAR":0,"MEAN_MOTION_DOT":-3.5e-7,"MEAN_MOTION_DDOT":0}]
